start=new Date('2022-02-03T00:00:00.000Z').valueOf();
sats=[{"RA_OF_ASC_NODE":"65.3389","REV_AT_EPOCH":"554","MEAN_ELEMENT_THEORY":"SGP4","GP_ID":"195167957","NORAD_CAT_ID":"50813","EPHEMERIS_TYPE":"0","OBJECT_TYPE":"PAYLOAD","INCLINATION":"53.2136","SEMIMAJOR_AXIS":"6727.940","FILE":"3290366","DECAY_DATE":null,"TLE_LINE1":"1 50813U 22001L   22033.91667824  .00076304  00000-0  54352-3 0  9997","CENTER_NAME":"EARTH","ARG_OF_PERICENTER":"39.8612","LAUNCH_DATE":"2022-01-06","RCS_SIZE":"LARGE","TLE_LINE2":"2 50813  53.2136  65.3389 0001732  39.8612 322.2419 15.73184119  5542","MEAN_MOTION":"15.73184119","ECCENTRICITY":"0.00017320","MEAN_MOTION_DDOT":"0.0000000000000","COUNTRY_CODE":"US","ELEMENT_SET_NO":"999","APOAPSIS":"350.971","REF_FRAME":"TEME","PERIOD":"91.534","CLASSIFICATION_TYPE":"U","SITE":"AFETR","PERIAPSIS":"348.640","EPOCH":"2022-02-02T22:00:00.999936","TIME_SYSTEM":"UTC","OBJECT_ID":"2022-001L","OBJECT_NAME":"STARLINK-3349","BSTAR":"0.00054352000000","MEAN_MOTION_DOT":"0.00076304","MEAN_ANOMALY":"322.2419"},{"EPHEMERIS_TYPE":"0","NORAD_CAT_ID":"50814","GP_ID":"195195657","MEAN_ELEMENT_THEORY":"SGP4","REV_AT_EPOCH":"371","RA_OF_ASC_NODE":"65.3306","DECAY_DATE":null,"TLE_LINE1":"1 50814U 22001M   22033.91667824  .00044308  00000-0  31919-3 0  9991","FILE":"3290513","SEMIMAJOR_AXIS":"6728.051","INCLINATION":"53.2144","OBJECT_TYPE":"PAYLOAD","MEAN_MOTION_DDOT":"0.0000000000000","COUNTRY_CODE":"US","MEAN_MOTION":"15.73145285","ECCENTRICITY":"0.00015980","TLE_LINE2":"2 50814  53.2144  65.3306 0001598  34.1598 331.2312 15.73145285  3712","RCS_SIZE":"LARGE","ARG_OF_PERICENTER":"34.1598","LAUNCH_DATE":"2022-01-06","CENTER_NAME":"EARTH","OBJECT_NAME":"STARLINK-3324","OBJECT_ID":"2022-001M","MEAN_MOTION_DOT":"0.00044308","MEAN_ANOMALY":"331.2312","BSTAR":"0.00031919000000","EPOCH":"2022-02-02T22:00:00.999936","TIME_SYSTEM":"UTC","PERIAPSIS":"348.841","SITE":"AFETR","CLASSIFICATION_TYPE":"U","REF_FRAME":"TEME","PERIOD":"91.536","ELEMENT_SET_NO":"999","APOAPSIS":"350.991"},{"NORAD_CAT_ID":"50815","EPHEMERIS_TYPE":"0","MEAN_ELEMENT_THEORY":"SGP4","GP_ID":"195195504","RA_OF_ASC_NODE":"65.9689","REV_AT_EPOCH":"427","FILE":"3290513","TLE_LINE1":"1 50815U 22001N   22033.78905815 -.00006335  00000-0 -40835-4 0  9990","DECAY_DATE":null,"SEMIMAJOR_AXIS":"6728.032","INCLINATION":"53.2147","OBJECT_TYPE":"PAYLOAD","ECCENTRICITY":"0.00017400","MEAN_MOTION":"15.73152173","COUNTRY_CODE":"US","MEAN_MOTION_DDOT":"0.0000000000000","RCS_SIZE":"LARGE","TLE_LINE2":"2 50815  53.2147  65.9689 0001740  37.7788 322.3354 15.73152173  4278","LAUNCH_DATE":"2022-01-06","ARG_OF_PERICENTER":"37.7788","CENTER_NAME":"EARTH","EPOCH":"2022-02-02T18:56:14.624160","TIME_SYSTEM":"UTC","MEAN_ANOMALY":"322.3354","MEAN_MOTION_DOT":"-0.00006335","BSTAR":"-0.00004083500000","OBJECT_ID":"2022-001N","OBJECT_NAME":"STARLINK-3234","SITE":"AFETR","PERIAPSIS":"348.726","CLASSIFICATION_TYPE":"U","APOAPSIS":"351.067","ELEMENT_SET_NO":"999","PERIOD":"91.536","REF_FRAME":"TEME"},{"PERIOD":"91.533","REF_FRAME":"TEME","APOAPSIS":"350.690","ELEMENT_SET_NO":"999","CLASSIFICATION_TYPE":"U","PERIAPSIS":"348.802","SITE":"AFETR","MEAN_MOTION_DOT":"0.00006074","MEAN_ANOMALY":"328.3300","BSTAR":"0.00004765200000","OBJECT_NAME":"STARLINK-3342","OBJECT_ID":"2022-001P","EPOCH":"2022-02-02T18:54:55.297728","TIME_SYSTEM":"UTC","CENTER_NAME":"EARTH","LAUNCH_DATE":"2022-01-06","ARG_OF_PERICENTER":"31.7805","RCS_SIZE":"LARGE","TLE_LINE2":"2 50816  53.2143  65.9635 0001403  31.7805 328.3300 15.73205031  4275","COUNTRY_CODE":"US","MEAN_MOTION_DDOT":"0.0000000000000","ECCENTRICITY":"0.00014030","MEAN_MOTION":"15.73205031","OBJECT_TYPE":"PAYLOAD","SEMIMAJOR_AXIS":"6727.881","INCLINATION":"53.2143","TLE_LINE1":"1 50816U 22001P   22033.78814002  .00006074  00000-0  47652-4 0  9990","DECAY_DATE":null,"FILE":"3290513","REV_AT_EPOCH":"427","RA_OF_ASC_NODE":"65.9635","GP_ID":"195195427","MEAN_ELEMENT_THEORY":"SGP4","NORAD_CAT_ID":"50816","EPHEMERIS_TYPE":"0"},{"OBJECT_TYPE":"PAYLOAD","SEMIMAJOR_AXIS":"6727.964","INCLINATION":"53.2142","DECAY_DATE":null,"TLE_LINE1":"1 50817U 22001Q   22033.78894422  .00026445  00000-0  19244-3 0  9994","FILE":"3290513","REV_AT_EPOCH":"427","RA_OF_ASC_NODE":"65.9669","GP_ID":"195195888","MEAN_ELEMENT_THEORY":"SGP4","NORAD_CAT_ID":"50817","EPHEMERIS_TYPE":"0","REF_FRAME":"TEME","PERIOD":"91.535","ELEMENT_SET_NO":"999","APOAPSIS":"350.823","CLASSIFICATION_TYPE":"U","PERIAPSIS":"348.834","SITE":"AFETR","OBJECT_NAME":"STARLINK-3341","OBJECT_ID":"2022-001Q","MEAN_ANOMALY":"328.6091","MEAN_MOTION_DOT":"0.00026445","BSTAR":"0.00019244000000","TIME_SYSTEM":"UTC","EPOCH":"2022-02-02T18:56:04.780608","CENTER_NAME":"EARTH","ARG_OF_PERICENTER":"31.5017","LAUNCH_DATE":"2022-01-06","TLE_LINE2":"2 50817  53.2142  65.9669 0001478  31.5017 328.6091 15.73176032  4275","RCS_SIZE":"LARGE","MEAN_MOTION_DDOT":"0.0000000000000","COUNTRY_CODE":"US","MEAN_MOTION":"15.73176032","ECCENTRICITY":"0.00014780"},{"CENTER_NAME":"EARTH","LAUNCH_DATE":"2022-01-06","ARG_OF_PERICENTER":"25.6987","RCS_SIZE":"LARGE","TLE_LINE2":"2 50818  53.2155  65.9617 0002055  25.6987 334.4135 15.73172563  4274","COUNTRY_CODE":"US","MEAN_MOTION_DDOT":"0.0000000000000","ECCENTRICITY":"0.00020550","MEAN_MOTION":"15.73172563","PERIOD":"91.535","REF_FRAME":"TEME","APOAPSIS":"351.221","ELEMENT_SET_NO":"999","CLASSIFICATION_TYPE":"U","PERIAPSIS":"348.456","SITE":"AFETR","MEAN_MOTION_DOT":"0.00000487","MEAN_ANOMALY":"334.4135","BSTAR":"0.00000790580000","OBJECT_NAME":"STARLINK-3336","OBJECT_ID":"2022-001R","EPOCH":"2022-02-02T18:55:15.911904","TIME_SYSTEM":"UTC","REV_AT_EPOCH":"427","RA_OF_ASC_NODE":"65.9617","GP_ID":"195195351","MEAN_ELEMENT_THEORY":"SGP4","NORAD_CAT_ID":"50818","EPHEMERIS_TYPE":"0","OBJECT_TYPE":"PAYLOAD","SEMIMAJOR_AXIS":"6727.973","INCLINATION":"53.2155","TLE_LINE1":"1 50818U 22001R   22033.78837861  .00000487  00000-0  79058-5 0  9998","DECAY_DATE":null,"FILE":"3290513"},{"CLASSIFICATION_TYPE":"U","REF_FRAME":"TEME","PERIOD":"91.531","ELEMENT_SET_NO":"999","APOAPSIS":"350.979","OBJECT_NAME":"STARLINK-3327","OBJECT_ID":"2022-001S","BSTAR":"0.00029224000000","MEAN_MOTION_DOT":"0.00040655","MEAN_ANOMALY":"326.4474","TIME_SYSTEM":"UTC","EPOCH":"2022-02-02T18:55:34.013568","PERIAPSIS":"348.343","SITE":"AFETR","ARG_OF_PERICENTER":"33.6670","LAUNCH_DATE":"2022-01-06","CENTER_NAME":"EARTH","MEAN_MOTION_DDOT":"0.0000000000000","COUNTRY_CODE":"US","MEAN_MOTION":"15.73234647","ECCENTRICITY":"0.00019590","RCS_SIZE":"LARGE","TLE_LINE2":"2 50819  53.2152  65.9623 0001959  33.6670 326.4474 15.73234647  4278","INCLINATION":"53.2152","SEMIMAJOR_AXIS":"6727.796","OBJECT_TYPE":"PAYLOAD","DECAY_DATE":null,"TLE_LINE1":"1 50819U 22001S   22033.78858812  .00040655  00000-0  29224-3 0  9997","FILE":"3290513","GP_ID":"195195812","MEAN_ELEMENT_THEORY":"SGP4","REV_AT_EPOCH":"427","RA_OF_ASC_NODE":"65.9623","NORAD_CAT_ID":"50819","EPHEMERIS_TYPE":"0"},{"MEAN_ELEMENT_THEORY":"SGP4","GP_ID":"195195735","RA_OF_ASC_NODE":"65.9605","REV_AT_EPOCH":"427","NORAD_CAT_ID":"50820","EPHEMERIS_TYPE":"0","INCLINATION":"53.2138","SEMIMAJOR_AXIS":"6727.805","OBJECT_TYPE":"PAYLOAD","FILE":"3290513","DECAY_DATE":null,"TLE_LINE1":"1 50820U 22001T   22033.78801690  .00021424  00000-0  15646-3 0  9997","ARG_OF_PERICENTER":"31.9568","LAUNCH_DATE":"2022-01-06","CENTER_NAME":"EARTH","MEAN_MOTION":"15.73231780","ECCENTRICITY":"0.00022430","MEAN_MOTION_DDOT":"0.0000000000000","COUNTRY_CODE":"US","RCS_SIZE":"LARGE","TLE_LINE2":"2 50820  53.2138  65.9605 0002243  31.9568 328.1587 15.73231780  4277","CLASSIFICATION_TYPE":"U","ELEMENT_SET_NO":"999","APOAPSIS":"351.179","REF_FRAME":"TEME","PERIOD":"91.531","EPOCH":"2022-02-02T18:54:44.660160","TIME_SYSTEM":"UTC","OBJECT_NAME":"STARLINK-3339","OBJECT_ID":"2022-001T","MEAN_ANOMALY":"328.1587","MEAN_MOTION_DOT":"0.00021424","BSTAR":"0.00015646000000","SITE":"AFETR","PERIAPSIS":"348.161"},{"GP_ID":"195195582","MEAN_ELEMENT_THEORY":"SGP4","REV_AT_EPOCH":"427","RA_OF_ASC_NODE":"65.9597","NORAD_CAT_ID":"50821","EPHEMERIS_TYPE":"0","SEMIMAJOR_AXIS":"6727.841","INCLINATION":"53.2145","OBJECT_TYPE":"PAYLOAD","TLE_LINE1":"1 50821U 22001U   22033.78757024  .00016974  00000-0  12501-3 0  9990","DECAY_DATE":null,"FILE":"3290513","LAUNCH_DATE":"2022-01-06","ARG_OF_PERICENTER":"22.8881","CENTER_NAME":"EARTH","COUNTRY_CODE":"US","MEAN_MOTION_DDOT":"0.0000000000000","ECCENTRICITY":"0.00016540","MEAN_MOTION":"15.73218921","TLE_LINE2":"2 50821  53.2145  65.9597 0001654  22.8881 337.2213 15.73218921  4277","RCS_SIZE":"LARGE","CLASSIFICATION_TYPE":"U","PERIOD":"91.532","REF_FRAME":"TEME","APOAPSIS":"350.819","ELEMENT_SET_NO":"999","BSTAR":"0.00012501000000","MEAN_MOTION_DOT":"0.00016974","MEAN_ANOMALY":"337.2213","OBJECT_NAME":"STARLINK-3346","OBJECT_ID":"2022-001U","EPOCH":"2022-02-02T18:54:06.068736","TIME_SYSTEM":"UTC","PERIAPSIS":"348.593","SITE":"AFETR"},{"FILE":"3290513","DECAY_DATE":null,"TLE_LINE1":"1 50822U 22001V   22033.78779222  .00016493  00000-0  12159-3 0  9990","OBJECT_TYPE":"PAYLOAD","INCLINATION":"53.2159","SEMIMAJOR_AXIS":"6727.836","NORAD_CAT_ID":"50822","EPHEMERIS_TYPE":"0","RA_OF_ASC_NODE":"65.9587","REV_AT_EPOCH":"427","MEAN_ELEMENT_THEORY":"SGP4","GP_ID":"195195658","SITE":"AFETR","PERIAPSIS":"348.158","TIME_SYSTEM":"UTC","EPOCH":"2022-02-02T18:54:25.247808","OBJECT_NAME":"STARLINK-3343","OBJECT_ID":"2022-001V","MEAN_MOTION_DOT":"0.00016493","MEAN_ANOMALY":"333.6192","BSTAR":"0.00012159000000","ELEMENT_SET_NO":"999","APOAPSIS":"351.245","REF_FRAME":"TEME","PERIOD":"91.532","CLASSIFICATION_TYPE":"U","RCS_SIZE":"LARGE","TLE_LINE2":"2 50822  53.2159  65.9587 0002294  26.4945 333.6192 15.73220659  4271","MEAN_MOTION":"15.73220659","ECCENTRICITY":"0.00022940","MEAN_MOTION_DDOT":"0.0000000000000","COUNTRY_CODE":"US","CENTER_NAME":"EARTH","ARG_OF_PERICENTER":"26.4945","LAUNCH_DATE":"2022-01-06"}];
